NORAD_CAT_ID,OBJECT_NAME,OBJECT_TYPE,EPOCH,MEAN_MOTION,ECCENTRICITY,INCLINATION,RA_OF_ASC_NODE,ARG_OF_PERICENTER,MEAN_ANOMALY,BSTAR,MEAN_MOTION_DOT,MEAN_MOTION_DDOT,TLE_LINE0,TLE_LINE1,TLE_LINE2,SEMIMAJOR_AXIS,PERIOD,APOGEE,PERIGEE,DECAYED
52845.0,STARLINK-4168,PAYLOAD,2022-11-20 13:06:20,15.08841581,0.0002327,53.2166,44.234,27.632,332.4796,-0.00011374,-2.098e-05,0.0,0 STARLINK-4168,1 52845U 22062R   22324.54607017 -.00002098  00000-0 -11374-3 0  9999,2 52845  53.2166  44.2340 0002327  27.6320 332.4796 15.08841581 24348,6917.876,95.437,541.35,538.131,0.0
52845.0,STARLINK-4168,PAYLOAD,2022-11-21 11:21:44,15.08849929,0.0002424,53.217,40.0715,28.3241,331.7883,0.00060634,9.378e-05,0.0,0 STARLINK-4168,1 52845U 22062R   22325.47342979  .00009378  00000-0  60634-3 0  9994,2 52845  53.2170  40.0715 0002424  28.3241 331.7883 15.08849929 23994,6917.85,95.437,541.3919999999998,538.038,0.0
52845.0,STARLINK-4168,PAYLOAD,2022-11-21 12:57:07,15.08845904,0.0002383,53.2166,39.7752,25.5183,334.5926,0.00028272,4.215e-05,0.0,0 STARLINK-4168,1 52845U 22062R   22325.53966989  .00004215  00000-0  28272-3 0  9991,2 52845  53.2166  39.7752 0002383  25.5183 334.5926 15.08845904 24004,6917.861999999999,95.437,541.376,538.0790000000002,0.0
52845.0,STARLINK-4168,PAYLOAD,2022-11-22 12:47:54,15.08853046,0.0002597,53.2175,35.3141,27.475,332.6379,0.00037487,5.685e-05,0.0,0 STARLINK-4168,1 52845U 22062R   22326.53326690  .00005685  00000-0  37487-3 0  9991,2 52845  53.2175  35.3141 0002597  27.4750 332.6379 15.08853046 24159,6917.840999999999,95.437,541.502,537.909,0.0
52845.0,STARLINK-4168,PAYLOAD,2022-11-23 04:41:45,15.08847346,0.0002598,53.2176,32.3409,35.7907,324.3259,0.00013603,1.878e-05,0.0,0 STARLINK-4168,1 52845U 22062R   22327.19566661  .00001878  00000-0  13603-3 0  9992,2 52845  53.2176  32.3409 0002598  35.7907 324.3259 15.08847346 24747,6917.858,95.437,541.52,537.9259999999998,0.0
52845.0,STARLINK-4168,PAYLOAD,2022-11-23 11:03:18,15.08838147,0.0002572,53.2189,31.1516,23.6642,336.4468,-1.2436e-05,-4.86e-06,0.0,0 STARLINK-4168,1 52845U 22062R   22327.46062756 -.00000486  00000-0 -12436-4 0  9998,2 52845  53.2189  31.1516 0002572  23.6642 336.4468 15.08838147 24296,6917.886,95.438,541.53,537.972,0.0
52845.0,STARLINK-4168,PAYLOAD,2022-11-24 10:54:05,15.0883801,0.0002613,53.2183,26.6908,28.659,331.4546,-3.9291e-05,-9.14e-06,0.0,0 STARLINK-4168,1 52845U 22062R   22328.45423202 -.00000914  00000-0 -39291-4 0  9999,2 52845  53.2183  26.6908 0002613  28.6590 331.4546 15.08838010 24445,6917.886,95.438,541.559,537.944,0.0
52845.0,STARLINK-4168,PAYLOAD,2022-11-24 12:29:29,15.08839353,0.0002589,53.2187,26.3931,29.4951,330.6187,-3.8358e-05,-8.99e-06,0.0,0 STARLINK-4168,1 52845U 22062R   22328.52047476 -.00000899  00000-0 -38358-4 0  9997,2 52845  53.2187  26.3931 0002589  29.4951 330.6187 15.08839353 24942,6917.882,95.438,541.538,537.956,0.0
52845.0,STARLINK-4168,PAYLOAD,2022-11-24 20:26:24,15.08841058,0.0002616,53.2188,24.9064,29.581,330.533,-2.8945e-05,-7.49e-06,0.0,0 STARLINK-4168,1 52845U 22062R   22328.85167265 -.00000749  00000-0 -28945-4 0  9997,2 52845  53.2188  24.9064 0002616  29.5810 330.5330 15.08841058 24506,6917.877,95.437,541.552,537.932,0.0
52845.0,STARLINK-4168,PAYLOAD,2022-11-25 10:44:53,15.08833506,0.0002613,53.2186,22.2298,29.5231,330.5908,9.8484e-05,1.279e-05,0.0,0 STARLINK-4168,1 52845U 22062R   22329.44783599  .00001279  00000-0  98484-4 0  9999,2 52845  53.2186  22.2298 0002613  29.5231 330.5908 15.08833506 24597,6917.9,95.438,541.573,537.9580000000002,0.0
52845.0,STARLINK-4168,PAYLOAD,2022-11-25 20:17:11,15.08836726,0.0002676,53.2184,20.4459,27.3005,332.8128,8.2529e-05,1.025e-05,0.0,0 STARLINK-4168,1 52845U 22062R   22329.84527630  .00001025  00000-0  82529-4 0  9997,2 52845  53.2184  20.4459 0002676  27.3005 332.8128 15.08836726 24651,6917.89,95.438,541.607,537.904,0.0
52845.0,STARLINK-4168,PAYLOAD,2022-11-26 02:38:44,15.08838938,0.0002698,53.2182,19.2562,27.131,332.9822,0.0001636,2.316e-05,0.0,0 STARLINK-4168,1 52845U 22062R   22330.11023362  .00002316  00000-0  16360-3 0  9995,2 52845  53.2182  19.2562 0002698  27.1310 332.9822 15.08838938 25189,6917.884,95.438,541.615,537.882,0.0
52845.0,STARLINK-4168,PAYLOAD,2022-11-26 10:35:39,15.08849259,0.0002774,53.2175,17.7699,30.0165,330.0985,0.00027206,4.045e-05,0.0,0 STARLINK-4168,1 52845U 22062R   22330.44142897  .00004045  00000-0  27206-3 0  9998,2 52845  53.2175  17.7699 0002774  30.0165 330.0985 15.08849259 25234,6917.852,95.437,541.636,537.798,0.0
52845.0,STARLINK-4168,PAYLOAD,2022-11-26 20:07:57,15.08855372,0.0002871,53.2177,15.9856,30.7882,329.3278,0.00027839,4.147e-05,0.0,0 STARLINK-4168,1 52845U 22062R   22330.83886347  .00004147  00000-0  27839-3 0  9991,2 52845  53.2177  15.9856 0002871  30.7882 329.3278 15.08855372 24803,6917.833000000001,95.437,541.685,537.712,0.0
52845.0,STARLINK-4168,PAYLOAD,2022-11-27 08:51:03,15.08835418,0.0002843,53.2178,13.6068,34.6305,325.4871,-9.4771e-05,-1.796e-05,0.0,0 STARLINK-4168,1 52845U 22062R   22331.36879207 -.00001796  00000-0 -94771-4 0  9996,2 52845  53.2178  13.6068 0002843  34.6305 325.4871 15.08835418 25374,6917.894,95.438,541.726,537.793,0.0
52845.0,STARLINK-4168,PAYLOAD,2022-11-27 19:58:45,15.0884195,0.0002812,53.2173,11.5253,29.7952,330.3199,9.0849e-05,1.158e-05,0.0,0 STARLINK-4168,1 52845U 22062R   22331.83246911  .00001158  00000-0  90849-4 0  9990,2 52845  53.2173  11.5253 0002812  29.7952 330.3199 15.08841950 24950,6917.874,95.437,541.685,537.794,0.0
52845.0,STARLINK-4168,PAYLOAD,2022-11-28 11:52:37,15.08837204,0.0002806,53.2173,8.5517,30.91,329.2057,-6.5822e-05,-1.336e-05,0.0,0 STARLINK-4168,1 52845U 22062R   22332.49487272 -.00001336  00000-0 -65822-4 0  9993,2 52845  53.2173   8.5517 0002806  30.9100 329.2057 15.08837204 25544,6917.889,95.438,541.695,537.813,0.0
52845.0,STARLINK-4168,PAYLOAD,2022-11-29 10:08:01,15.08836419,0.0002687,53.2174,4.3883,29.8421,330.2724,0.00010975,1.459e-05,0.0,0 STARLINK-4168,1 52845U 22062R   22333.42223497  .00001459  00000-0  10975-3 0  9996,2 52845  53.2174   4.3883 0002687  29.8421 330.2724 15.08836419 25196,6917.891,95.438,541.615,537.8969999999998,0.0
52845.0,STARLINK-4168,PAYLOAD,2022-11-30 03:37:15,15.08837495,0.0002944,53.2172,1.1171,30.0922,330.0238,1.3837e-05,-6.8e-07,0.0,0 STARLINK-4168,1 52845U 22062R   22334.15087757 -.00000068  00000-0  13837-4 0  9991,2 52845  53.2172   1.1171 0002944  30.0922 330.0238 15.08837495 25794,6917.888000000001,95.438,541.79,537.716,0.0
52845.0,STARLINK-4168,PAYLOAD,2022-11-30 09:58:48,15.08834493,0.0002894,53.2173,359.9277,28.7531,331.3621,9.0329e-05,1.149e-05,0.0,0 STARLINK-4168,1 52845U 22062R   22334.41584028  .00001149  00000-0  90329-4 0  9994,2 52845  53.2173 359.9277 0002894  28.7531 331.3621 15.08834493 25346,6917.897,95.438,541.764,537.76,0.0
52845.0,STARLINK-4168,PAYLOAD,2022-12-01 09:49:35,15.08833547,0.0002924,53.2178,355.4676,29.4024,330.7133,4.7716e-05,4.71e-06,0.0,0 STARLINK-4168,1 52845U 22062R   22335.40944183  .00000471  00000-0  47716-4 0  9995,2 52845  53.2178 355.4676 0002924  29.4024 330.7133 15.08833547 25490,6917.9,95.438,541.788,537.742,0.0
52845.0,STARLINK-4168,PAYLOAD,2022-12-02 11:15:46,15.08833995,0.0002983,53.2177,350.7099,29.2408,330.8751,5.9947e-05,6.65e-06,0.0,0 STARLINK-4168,1 52845U 22062R   22336.46928470  .00000665  00000-0  59947-4 0  9997,2 52845  53.2177 350.7099 0002983  29.2408 330.8751 15.08833995 26142,6917.899,95.438,541.827,537.7,0.0
52845.0,STARLINK-4168,PAYLOAD,2022-12-02 17:37:18,15.08841474,0.0002994,53.2178,349.5207,29.5676,330.5485,6.837899999999999e-05,8e-06,0.0,0 STARLINK-4168,1 52845U 22062R   22336.73423989  .00000800  00000-0  68379-4 0  9992,2 52845  53.2178 349.5207 0002994  29.5676 330.5485 15.08841474 26188,6917.876,95.437,541.812,537.67,0.0
52845.0,STARLINK-4168,PAYLOAD,2022-12-03 06:20:23,15.08832328,0.0002994,53.2178,347.142,28.6677,331.4479,7.0882e-05,8.39e-06,0.0,0 STARLINK-4168,1 52845U 22062R   22337.26416628  .00000839  00000-0  70882-4 0  9997,2 52845  53.2178 347.1420 0002994  28.6677 331.4479 15.08832328 26260,6917.904,95.438,541.84,537.698,0.0
52845.0,STARLINK-4168,PAYLOAD,2022-12-03 11:06:33,15.08831996,0.0002964,53.2178,346.2498,30.9038,329.2128,5.3694e-05,5.66e-06,0.0,0 STARLINK-4168,1 52845U 22062R   22337.46288781  .00000566  00000-0  53694-4 0  9995,2 52845  53.2178 346.2498 0002964  30.9038 329.2128 15.08831996 25804,6917.905,95.438,541.82,537.719,0.0
52845.0,STARLINK-4168,PAYLOAD,2022-12-03 17:28:05,15.08839092,0.0002927,53.2181,345.0604,31.1901,328.9264,7.9872e-05,9.83e-06,0.0,0 STARLINK-4168,1 52845U 22062R   22337.72784299  .00000983  00000-0  79872-4 0  9998,2 52845  53.2181 345.0604 0002927  31.1901 328.9264 15.08839092 25841,6917.8830000000025,95.438,541.773,537.7230000000002,0.0
52845.0,STARLINK-4168,PAYLOAD,2022-12-04 07:46:34,15.08833324,0.0002915,53.2182,342.3843,32.4528,327.6643,5.0538e-05,5.16e-06,0.0,0 STARLINK-4168,1 52845U 22062R   22338.32400908  .00000516  00000-0  50538-4 0  9997,2 52845  53.2182 342.3843 0002915  32.4528 327.6643 15.08833324 26427,6917.901,95.438,541.7819999999998,537.749,0.0
52845.0,STARLINK-4168,PAYLOAD,2022-12-04 17:18:52,15.08840383,0.000303,53.2188,340.6,32.3239,327.7939,5.2814e-05,5.52e-06,0.0,0 STARLINK-4168,1 52845U 22062R   22338.72144551  .00000552  00000-0  52814-4 0  9999,2 52845  53.2188 340.6000 0003030  32.3239 327.7939 15.08840383 25999,6917.879,95.438,541.84,537.648,0.0
52845.0,STARLINK-4168,PAYLOAD,2022-12-05 01:15:48,15.08843665,0.0002961,53.2194,339.1140000000001,34.495,325.6234,6.4757e-05,7.42e-06,0.0,0 STARLINK-4168,1 52845U 22062R   22339.05264340  .00000742  00000-0  64757-4 0  9995,2 52845  53.2194 339.1140 0002961  34.4950 325.6234 15.08843665 26531,6917.869000000002,95.437,541.783,537.686,0.0
